IRIDIUM 39              
1 25042U 97069D   25275.14731067  .00001530  00000+0  39491-3 0  9991
2 25042  86.3972 165.3223 0016333 315.2738  44.7148 14.49362947464457
IRIDIUM 38              
1 25043U 97069E   25275.04004196  .00001128  00000+0  36503-3 0  9991
2 25043  86.4030 188.2347 0004056  95.1364 265.0297 14.38218273461318
IRIDIUM 42              
1 25077U 97077A   25274.82933643  .00001119  00000+0  37525-3 0  9995
2 25077  86.4031 194.6163 0002839  95.4305 264.7216 14.36446316456509
IRIDIUM 44              
1 25078U 97077B   25275.12113186  .00001089  00000+0  33755-3 0  9999
2 25078  86.4032 176.1616 0003735  62.5353 297.6226 14.40341820459095
IRIDIUM 45              
1 25104U 97082A   25274.93980098  .00042160  00000+0  13586-2 0  9991
2 25104  86.3616 355.9130 0105393 290.6853  68.3120 15.26684659468307
IRIDIUM 24              
1 25105U 97082B   25275.09496186  .00001528  00000+0  45746-3 0  9997
2 25105  86.3933  34.9260 0013484  86.0520 274.2221 14.42219165458622
IRIDIUM 51              
1 25262U 98018A   25274.75825786  .00111899  00000+0  18515-2 0  9991
2 25262  86.3846   2.7649 0071482 197.5794 162.2991 15.48908027463463
IRIDIUM 57              
1 25273U 98019B   25275.06977985  .00000835  00000+0  28107-3 0  9994
2 25273  86.3903 100.4625 0002235  88.8478 271.2975 14.35966104440126
